OBJECT_NAME,OBJECT_ID,EPOCH,MEAN_MOTION,ECCENTRICITY,INCLINATION,RA_OF_ASC_NODE,ARG_OF_PERICENTER,MEAN_ANOMALY,EPHEMERIS_TYPE,CLASSIFICATION_TYPE,NORAD_CAT_ID,ELEMENT_SET_NO,REV_AT_EPOCH,BSTAR,MEAN_MOTION_DOT,MEAN_MOTION_DDOT
ONEWEB-0053,2020-008AC,2026-07-02T13:08:51.368064,13.10374400,.0001772,87.8817,33.2232,70.2201,289.9117,0,U,45157,999,30992,-.60631E-3,-.199E-5,0
ONEWEB-0054,2020-008AD,2026-07-02T03:00:30.919104,13.10371570,.00018848,87.8825,33.2919,85.0029,275.1314,0,U,45158,999,30998,.88955888E-3,.323E-5,0
ONEWEB-0056,2020-008AE,2026-07-02T13:18:26.404128,13.10374396,.0002073,87.8829,33.1997,86.2529,273.8835,0,U,45159,999,31019,.21296E-3,.87E-6,0
ONEWEB-0057,2020-008AF,2026-07-02T13:43:17.802048,13.10371599,.0001879,87.8822,33.2081,69.0802,291.0527,0,U,45160,999,31036,.18051E-2,.643E-5,0
ONEWEB-0058,2020-008AG,2026-07-02T13:24:17.165664,13.10376317,.00017,87.8819,33.2158,91.9399,268.1923,0,U,45161,999,31043,.76467E-3,.28E-5,0
ONEWEB-0059,2020-008AH,2026-07-02T13:18:51.630336,13.10372810,.0001628,87.8819,33.2158,78.7104,281.4206,0,U,45162,999,31033,.19463E-3,.81E-6,0
ONEWEB-0062,2020-008AJ,2026-07-02T13:52:41.369376,13.10372195,.0001853,87.8825,33.1995,95.8880,264.2459,0,U,45163,999,31020,.1502E-2,.537E-5,0
ONEWEB-0065,2020-008AK,2026-07-02T00:01:53.905440,13.10375821,.00019876,87.8823,33.3227,77.6401,282.4948,0,U,45164,999,30982,-.15826482E-2,-.54E-5,0
ONEWEB-0066,2020-020A,2026-07-02T18:54:02.388096,13.11415050,.0001656,87.8873,17.9646,88.6616,271.4702,0,U,45424,999,30472,-.85225E-3,-.289E-5,0
ONEWEB-0067,2020-020B,2026-07-02T10:39:08.424000,13.11426125,.0001835,87.8900,17.9578,82.3055,277.8281,0,U,45425,999,30473,.11268E-2,.412E-5,0
ONEWEB-0080,2020-020C,2026-07-02T12:28:30.242208,13.11417192,.0001864,87.8891,18.0159,97.8248,262.3092,0,U,45426,999,30471,.89604E-3,.33E-5,0
ONEWEB-0090,2020-020D,2026-07-02T18:39:36.279936,13.11414550,.0001873,87.8885,17.9689,90.9978,269.1364,0,U,45427,999,30471,.16209E-3,.7E-6,0
ONEWEB-0061,2020-020E,2026-07-02T12:06:06.704064,13.11417477,.0001811,87.8887,18.0079,89.1217,271.0118,0,U,45428,999,30463,-.776E-3,-.262E-5,0
ONEWEB-0081,2020-020F,2026-07-02T18:58:55.305696,13.11414743,.0001675,87.8882,17.9603,84.4945,275.6374,0,U,45429,999,30478,-.14279E-2,-.493E-5,0
ONEWEB-0069,2020-020G,2026-07-02T19:01:35.302944,13.11417546,.0001642,87.8882,17.9632,86.3773,273.7542,0,U,45430,999,30471,-.13971E-2,-.482E-5,0
ONEWEB-0031,2020-020H,2026-07-02T12:33:11.030112,13.11417092,.0001876,87.8876,18.0209,94.0084,266.1258,0,U,45431,999,30466,.11683E-2,.427E-5,0
ONEWEB-0027,2020-020J,2026-07-02T18:03:03.668256,13.17652779,.0002308,87.9134,2.7686,98.8418,261.2975,0,U,45432,999,30840,.81152E-4,.44E-6,0
ONEWEB-0064,2020-020K,2026-07-02T12:30:44.405856,13.11418334,.0001941,87.8881,18.0136,92.1879,267.9471,0,U,45433,999,30469,.10698E-2,.392E-5,0
ONEWEB-0018,2020-020L,2026-07-02T18:46:30.683712,13.11413980,.0001461,87.8878,17.9611,94.0134,266.1161,0,U,45434,999,30467,-.45704E-3,-.149E-5,0
ONEWEB-0083,2020-020M,2026-07-02T13:02:40.755264,13.11413897,.0001837,87.8883,18.0031,91.3275,268.8064,0,U,45435,999,30468,.63726E-3,.239E-5,0
ONEWEB-0095,2020-020N,2026-07-02T11:00:36.069120,13.11415196,.0002528,87.8884,18.0286,84.0742,276.0674,0,U,45436,999,30467,.13407E-2,.488E-5,0
ONEWEB-0092,2020-020P,2026-07-02T19:03:49.258368,13.11411769,.0001984,87.8886,17.9529,81.6720,278.4633,0,U,45437,999,30483,-.12836E-2,-.442E-5,0
ONEWEB-0085,2020-020Q,2026-07-02T18:31:53.118912,13.11414592,.000185,87.8878,17.9634,88.8459,271.2880,0,U,45438,999,30471,.87859E-3,.324E-5,0
ONEWEB-0096,2020-020R,2026-07-02T18:34:30.772128,13.11413617,.0001961,87.8883,17.9600,88.0126,272.1227,0,U,45439,999,30470,.54341E-3,.205E-5,0
ONEWEB-0037,2020-020S,2026-07-02T19:13:56.830080,13.11914465,.0001912,87.8896,17.9272,87.0220,273.1127,0,U,45440,999,30474,-.12128E-2,-.42E-5,0
ONEWEB-0042,2020-020T,2026-07-02T11:00:12.888000,13.11415539,.0001776,87.8885,18.0190,85.5072,274.6259,0,U,45441,999,30466,.11456E-2,.419E-5,0
ONEWEB-0098,2020-020U,2026-07-02T10:54:17.630208,13.11417678,.0001839,87.8882,18.0289,90.9972,269.1367,0,U,45442,999,30464,.15421E-2,.559E-5,0
ONEWEB-0055,2020-020V,2026-07-02T12:13:26.958720,13.11418027,.0001861,87.8887,18.0169,90.8335,269.3006,0,U,45443,999,30462,-.33021E-3,-.104E-5,0
ONEWEB-0093,2020-020W,2026-07-02T19:06:59.130144,13.10891751,.0001638,87.8884,17.9538,81.0762,279.0551,0,U,45444,999,30472,-.16652E-2,-.573E-5,0
ONEWEB-0029,2020-020X,2026-07-02T12:23:36.768192,13.11417107,.0001609,87.8878,18.0165,84.4644,275.6667,0,U,45445,999,30466,.70567E-3,.263E-5,0
ONEWEB-0068,2020-020Y,2026-07-02T19:03:36.645696,13.11415866,.0001681,87.8883,17.9571,86.2462,273.8858,0,U,45446,999,30464,-.12477E-2,-.429E-5,0
